NORAD_CAT_ID,OBJECT_NAME,OBJECT_TYPE,EPOCH,MEAN_MOTION,ECCENTRICITY,INCLINATION,RA_OF_ASC_NODE,ARG_OF_PERICENTER,MEAN_ANOMALY,BSTAR,MEAN_MOTION_DOT,MEAN_MOTION_DDOT,TLE_LINE0,TLE_LINE1,TLE_LINE2,SEMIMAJOR_AXIS,PERIOD,APOGEE,PERIGEE,DECAYED
53744.0,STARLINK-4670,PAYLOAD,2023-12-08 08:25:31,15.0884082,0.000174,53.2183,355.3679,93.8762,266.2429,0.00011884,1.604e-05,0.0,0 STARLINK-4670,1 53744U 22107AW  23342.35105785  .00001604  00000-0  11884-3 0  9999,2 53744  53.2183 355.3679 0001740  93.8762 266.2429 15.08840820 69677,6917.878,95.438,540.947,538.539,0.0
53744.0,STARLINK-4670,PAYLOAD,2023-12-09 08:16:18,15.08842339,0.0001651,53.2179,350.9065,90.0608,270.0573,0.00016468,2.334e-05,0.0,0 STARLINK-4670,1 53744U 22107AW  23343.34465867  .00002334  00000-0  16468-3 0  9993,2 53744  53.2179 350.9065 0001651  90.0608 270.0573 15.08842339 70606,6917.873,95.437,540.88,538.596,0.0
53744.0,STARLINK-4670,PAYLOAD,2023-12-10 09:42:28,15.08843199,0.0001716,53.2178,346.1493,86.2224,273.8965,6.3378e-05,7.21e-06,0.0,0 STARLINK-4670,1 53744U 22107AW  23344.40450013  .00000721  00000-0  63378-4 0  9999,2 53744  53.2178 346.1493 0001716  86.2224 273.8965 15.08843199 69980,6917.871,95.437,540.923,538.549,0.0
53744.0,STARLINK-4670,PAYLOAD,2023-12-11 06:22:29,15.08845227,0.0001834,53.2182,342.2839,81.2083,278.9117,9.1526e-05,1.169e-05,0.0,0 STARLINK-4670,1 53744U 22107AW  23345.26561711  .00001169  00000-0  91526-4 0  9995,2 53744  53.2182 342.2839 0001834  81.2083 278.9117 15.08845227 70896,6917.864,95.437,540.998,538.461,0.0
53744.0,STARLINK-4670,PAYLOAD,2023-12-12 03:02:30,15.08840736,0.0001715,53.2179,338.4171,91.5853,268.5336,4.1282e-05,3.69e-06,0.0,0 STARLINK-4670,1 53744U 22107AW  23346.12673919  .00000369  00000-0  41282-4 0  9990,2 53744  53.2179 338.4171 0001715  91.5853 268.5336 15.08840736 70242,6917.878,95.438,540.93,538.557,0.0
53744.0,STARLINK-4670,PAYLOAD,2023-12-12 06:13:16,15.08841391,0.0001742,53.2179,337.8209,91.8637,268.2555,5.0995e-05,5.24e-06,0.0,0 STARLINK-4670,1 53744U 22107AW  23346.25921921  .00000524  00000-0  50995-4 0  9997,2 53744  53.2179 337.8209 0001742  91.8637 268.2555 15.08841391 71047,6917.876,95.437,540.946,538.536,0.0
53744.0,STARLINK-4670,PAYLOAD,2023-12-13 04:28:40,15.08842764,0.0001814,53.2183,333.6597,99.1638,260.956,8.799e-05,1.113e-05,0.0,0 STARLINK-4670,1 53744U 22107AW  23347.18657603  .00001113  00000-0  87990-4 0  9993,2 53744  53.2183 333.6597 0001814  99.1638 260.9560 15.08842764 70407,6917.872,95.437,540.992,538.482,0.0
53744.0,STARLINK-4670,PAYLOAD,2023-12-14 04:19:27,15.08838058,0.0001871,53.2194,329.2042,106.4623,253.6575,4.8925e-05,4.91e-06,0.0,0 STARLINK-4670,1 53744U 22107AW  23348.18018067  .00000491  00000-0  48925-4 0  9992,2 53744  53.2194 329.2042 0001871 106.4623 253.6575 15.08838058 70556,6917.886,95.438,541.046,538.457,0.0
53744.0,STARLINK-4670,PAYLOAD,2023-12-14 05:54:50,15.08840416,0.0001879,53.2188,328.9029,105.4558,254.6642,7.6193e-05,9.25e-06,0.0,0 STARLINK-4670,1 53744U 22107AW  23348.24641844  .00000925  00000-0  76193-4 0  9994,2 53744  53.2188 328.9029 0001879 105.4558 254.6642 15.08840416 71349,6917.879,95.438,541.044,538.444,0.0
53744.0,STARLINK-4670,PAYLOAD,2023-12-15 04:10:14,15.0884104,0.0001806,53.2183,324.7328,96.0284,264.0914,6.8165e-05,7.97e-06,0.0,0 STARLINK-4670,1 53744U 22107AW  23349.17377862  .00000797  00000-0  68165-4 0  9990,2 53744  53.2183 324.7328 0001806  96.0284 264.0914 15.08841040 71487,6917.877,95.437,540.992,538.493,0.0
53744.0,STARLINK-4670,PAYLOAD,2023-12-16 04:01:02,15.08833702,0.0001746,53.2179,320.2762,101.495,258.6238,1.5805e-05,-3.7e-07,0.0,0 STARLINK-4670,1 53744U 22107AW  23350.16738775 -.00000037  00000-0  15805-4 0  9996,2 53744  53.2179 320.2762 0001746 101.4950 258.6238 15.08833702 70853,6917.9,95.438,540.973,538.557,0.0
53744.0,STARLINK-4670,PAYLOAD,2023-12-16 05:36:25,15.0883532,0.0001616,53.2186,319.9835,82.3061,277.8115,5.9967e-05,6.66e-06,0.0,0 STARLINK-4670,1 53744U 22107AW  23350.23362766  .00000666  00000-0  59967-4 0  9991,2 53744  53.2186 319.9835 0001616  82.3061 277.8115 15.08835320 71646,6917.895,95.438,540.878,538.642,0.0
53744.0,STARLINK-4670,PAYLOAD,2023-12-17 03:51:49,15.0884191,0.0001709,53.218,315.8201,76.8953,283.2229,8.3072e-05,1.034e-05,0.0,0 STARLINK-4670,1 53744U 22107AW  23351.16098516  .00001034  00000-0  83072-4 0  9997,2 53744  53.2180 315.8201 0001709  76.8953 283.2229 15.08841910 71002,6917.875,95.437,540.922,538.557,0.0
53744.0,STARLINK-4670,PAYLOAD,2023-12-17 05:27:12,15.0884408,0.000176,53.2183,315.5213,75.3225,284.7963,0.00010009,1.305e-05,0.0,0 STARLINK-4670,1 53744U 22107AW  23351.22722375  .00001305  00000-0  10009-3 0  9991,2 53744  53.2183 315.5213 0001760  75.3225 284.7963 15.08844080 71796,6917.868,95.437,540.95,538.515,0.0
53744.0,STARLINK-4670,PAYLOAD,2023-12-18 03:42:35,15.08852669,0.0001857,53.2179,311.3568,72.1683,287.9512,0.00020388,2.959e-05,0.0,0 STARLINK-4670,1 53744U 22107AW  23352.15457577  .00002959  00000-0  20388-3 0  9990,2 53744  53.2179 311.3568 0001857  72.1683 287.9512 15.08852669 71155,6917.842,95.437,540.991,538.422,0.0
53744.0,STARLINK-4670,PAYLOAD,2023-12-18 05:17:58,15.08858456,0.000193,53.2178,311.0584,73.0144,287.106,0.00034495,5.209e-05,0.0,0 STARLINK-4670,1 53744U 22107AW  23352.22081590  .00005209  00000-0  34495-3 0  9991,2 53744  53.2178 311.0584 0001930  73.0144 287.1060 15.08858456 71940,6917.824,95.436,541.024,538.354,0.0
53744.0,STARLINK-4670,PAYLOAD,2023-12-19 03:33:23,15.08830579,0.0001569,53.217,306.8972,108.7361,251.3802,-0.00010965,-2.032e-05,0.0,0 STARLINK-4670,1 53744U 22107AW  23353.14819209 -.00002032  00000-0 -10965-3 0  9998,2 53744  53.2170 306.8972 0001569 108.7361 251.3802 15.08830579 71303,6917.909,95.438,540.86,538.689,0.0
53744.0,STARLINK-4670,PAYLOAD,2023-12-20 01:48:47,15.08844408,0.0001591,53.2169,302.7358,78.0644,282.0527,0.00016085,2.273e-05,0.0,0 STARLINK-4670,1 53744U 22107AW  23354.07554532  .00002273  00000-0  16085-3 0  9990,2 53744  53.2169 302.7358 0001591  78.0644 282.0527 15.08844408 71448,6917.867,95.437,540.833,538.631,0.0
53744.0,STARLINK-4670,PAYLOAD,2023-12-21 03:14:56,15.08853661,0.000157,53.217,297.9746,110.3994,249.7167,0.00030695,4.602e-05,0.0,0 STARLINK-4670,1 53744U 22107AW  23355.13538109  .00004602  00000-0  30695-3 0  9991,2 53744  53.2170 297.9746 0001570 110.3994 249.7167 15.08853661 71600,6917.839,95.437,540.79,538.618,0.0
53744.0,STARLINK-4670,PAYLOAD,2023-12-22 03:05:44,15.088355,0.0001626,53.2173,293.518,112.937,247.1794,-0.00010645,-1.982e-05,0.0,0 STARLINK-4670,1 53744U 22107AW  23356.12898947 -.00001982  00000-0 -10645-3 0  9993,2 53744  53.2173 293.5180 0001626 112.9370 247.1794 15.08835500 71751,6917.894,95.438,540.884,538.634,0.0
53744.0,STARLINK-4670,PAYLOAD,2023-12-23 06:07:17,15.08843651,0.0001575,53.2167,288.4566,112.117,247.9989,0.00014622,2.04e-05,0.0,0 STARLINK-4670,1 53744U 22107AW  23357.25506887  .00002040  00000-0  14622-3 0  9990,2 53744  53.2167 288.4566 0001575 112.1170 247.9989 15.08843651 71927,6917.869,95.437,540.824,538.645,0.0
53744.0,STARLINK-4670,PAYLOAD,2023-12-24 02:47:19,15.08844264,0.000149,53.2163,284.5953,76.0964,284.0194,0.00028184,4.201e-05,0.0,0 STARLINK-4670,1 53744U 22107AW  23358.11619403  .00004201  00000-0  28184-3 0  9994,2 53744  53.2163 284.5953 0001490  76.0964 284.0194 15.08844264 72051,6917.867,95.437,540.763,538.702,0.0
53744.0,STARLINK-4670,PAYLOAD,2023-12-24 04:22:42,15.08849542,0.000148,53.2167,284.2946,91.5335,268.5826,0.0003844,5.837e-05,0.0,0 STARLINK-4670,1 53744U 22107AW  23358.18243139  .00005837  00000-0  38440-3 0  9992,2 53744  53.2167 284.2946 0001480  91.5335 268.5826 15.08849542 72847,6917.851,95.437,540.74,538.692,0.0
53744.0,STARLINK-4670,PAYLOAD,2023-12-25 02:38:06,15.08849125,0.0002066,53.2169,280.1357,60.9902,299.1297,0.00027292,4.059e-05,0.0,0 STARLINK-4670,1 53744U 22107AW  23359.10979338  .00004059  00000-0  27292-3 0  9990,2 53744  53.2169 280.1357 0002066  60.9902 299.1297 15.08849125 72985,6917.852,95.437,541.147,538.288,0.0
53744.0,STARLINK-4670,PAYLOAD,2023-12-25 18:31:57,15.08837469,0.0001455,53.2171,277.1569,109.3092,250.8057,3.5506e-05,2.77e-06,0.0,0 STARLINK-4670,1 53744U 22107AW  23359.77219489  .00000277  00000-0  35506-4 0  9993,2 53744  53.2171 277.1569 0001455 109.3092 250.8057 15.08837469 72300,6917.888,95.438,540.76,538.747,0.0
53744.0,STARLINK-4670,PAYLOAD,2023-12-26 00:53:30,15.08839117,0.0001532,53.2164,275.9698,101.489,258.6274,8.093e-06,-1.59e-06,0.0,0 STARLINK-4670,1 53744U 22107AW  23360.03715525 -.00000159  00000-0  80930-5 0  9998,2 53744  53.2164 275.9698 0001532 101.4890 258.6274 15.08839117 73126,6917.883,95.438,540.808,538.688,0.0
53744.0,STARLINK-4670,PAYLOAD,2023-12-26 21:33:30,15.08847044,0.0001447,53.2156,272.1064,83.4005,276.7151,8.5648e-05,1.076e-05,0.0,0 STARLINK-4670,1 53744U 22107AW  23360.89827504  .00001076  00000-0  85648-4 0  9991,2 53744  53.2156 272.1064 0001447  83.4005 276.7151 15.08847044 73252,6917.859,95.437,540.725,538.723,0.0
53744.0,STARLINK-4670,PAYLOAD,2023-12-27 03:55:03,15.08853729,0.0001483,53.2162,270.9154,103.8897,256.226,0.0003989,6.069e-05,0.0,0 STARLINK-4670,1 53744U 22107AW  23361.16323187  .00006069  00000-0  39890-3 0  9994,2 53744  53.2162 270.9154 0001483 103.8897 256.2260 15.08853729 72510,6917.838,95.437,540.729,538.678,0.0
53744.0,STARLINK-4670,PAYLOAD,2023-12-27 18:13:31,15.08840791,0.000201,53.2167,268.2289,135.188,224.9274,5.2991e-05,5.55e-06,0.0,0 STARLINK-4670,1 53744U 22107AW  23361.75939625  .00000555  00000-0  52991-4 0  9991,2 53744  53.2167 268.2289 0002010 135.1880 224.9274 15.08840791 72603,6917.878,95.438,541.133,538.352,0.0
53744.0,STARLINK-4670,PAYLOAD,2023-12-27 21:24:18,15.08841672,0.0002036,53.2156,267.6417,122.4059,237.713,0.00010521,1.387e-05,0.0,0 STARLINK-4670,1 53744U 22107AW  23361.89187547  .00001387  00000-0  10521-3 0  9990,2 53744  53.2156 267.6417 0002036 122.4059 237.7130 15.08841672 73403,6917.875,95.437,541.149,538.332,0.0
